[{"OBJECT_NAME":"ONEWEB-0018","OBJECT_ID":"2020-020L","EPOCH":"2026-05-22T02:59:09.760128","MEAN_MOTION":13.11416924,"ECCENTRICITY":0.0001922,"INCLINATION":87.891,"RA_OF_ASC_NODE":26.251,"ARG_OF_PERICENTER":70.1585,"MEAN_ANOMALY":289.975,"EPHEMERIS_TYPE":0,"CLASSIFICATION_TYPE":"U","NORAD_CAT_ID":45434,"ELEMENT_SET_NO":999,"REV_AT_EPOCH":29921,"BSTAR":0.0016803000000000002,"MEAN_MOTION_DOT":6.08e-06,"MEAN_MOTION_DDOT":0.0},{"OBJECT_NAME":"ONEWEB-0083","OBJECT_ID":"2020-020M","EPOCH":"2026-05-22T02:44:42.041472","MEAN_MOTION":13.11418653,"ECCENTRICITY":0.0001792,"INCLINATION":87.8921,"RA_OF_ASC_NODE":26.2451,"ARG_OF_PERICENTER":79.3717,"MEAN_ANOMALY":280.7613,"EPHEMERIS_TYPE":0,"CLASSIFICATION_TYPE":"U","NORAD_CAT_ID":45435,"ELEMENT_SET_NO":999,"REV_AT_EPOCH":29925,"BSTAR":0.0006777800000000001,"MEAN_MOTION_DOT":2.53e-06,"MEAN_MOTION_DDOT":0.0},{"OBJECT_NAME":"ONEWEB-0095","OBJECT_ID":"2020-020N","EPOCH":"2026-05-22T02:32:29.902560","MEAN_MOTION":13.11417521,"ECCENTRICITY":0.0001925,"INCLINATION":87.8916,"RA_OF_ASC_NODE":26.2554,"ARG_OF_PERICENTER":106.2216,"MEAN_ANOMALY":253.9124,"EPHEMERIS_TYPE":0,"CLASSIFICATION_TYPE":"U","NORAD_CAT_ID":45436,"ELEMENT_SET_NO":999,"REV_AT_EPOCH":29925,"BSTAR":-0.00040155999999999997,"MEAN_MOTION_DOT":-1.3e-06,"MEAN_MOTION_DDOT":0.0},{"OBJECT_NAME":"ONEWEB-0092","OBJECT_ID":"2020-020P","EPOCH":"2026-05-22T03:28:32.030688","MEAN_MOTION":13.11952088,"ECCENTRICITY":0.0002006,"INCLINATION":87.8917,"RA_OF_ASC_NODE":26.2433,"ARG_OF_PERICENTER":89.7263,"MEAN_ANOMALY":270.4096,"EPHEMERIS_TYPE":0,"CLASSIFICATION_TYPE":"U","NORAD_CAT_ID":45437,"ELEMENT_SET_NO":999,"REV_AT_EPOCH":29937,"BSTAR":0.0002372,"MEAN_MOTION_DOT":9.7e-07,"MEAN_MOTION_DDOT":0.0},{"OBJECT_NAME":"ONEWEB-0085","OBJECT_ID":"2020-020Q","EPOCH":"2026-05-22T02:44:18.786912","MEAN_MOTION":13.11419915,"ECCENTRICITY":0.0001809,"INCLINATION":87.8909,"RA_OF_ASC_NODE":26.254,"ARG_OF_PERICENTER":81.8947,"MEAN_ANOMALY":278.2387,"EPHEMERIS_TYPE":0,"CLASSIFICATION_TYPE":"U","NORAD_CAT_ID":45438,"ELEMENT_SET_NO":999,"REV_AT_EPOCH":29925,"BSTAR":0.00053464,"MEAN_MOTION_DOT":2.02e-06,"MEAN_MOTION_DDOT":0.0},{"OBJECT_NAME":"ONEWEB-0096","OBJECT_ID":"2020-020R","EPOCH":"2026-05-22T02:46:58.037664","MEAN_MOTION":13.11416087,"ECCENTRICITY":0.0001904,"INCLINATION":87.8922,"RA_OF_ASC_NODE":26.2472,"ARG_OF_PERICENTER":81.7021,"MEAN_ANOMALY":278.4323,"EPHEMERIS_TYPE":0,"CLASSIFICATION_TYPE":"U","NORAD_CAT_ID":45439,"ELEMENT_SET_NO":999,"REV_AT_EPOCH":29924,"BSTAR":0.00067463,"MEAN_MOTION_DOT":2.52e-06,"MEAN_MOTION_DDOT":0.0},{"OBJECT_NAME":"ONEWEB-0037","OBJECT_ID":"2020-020S","EPOCH":"2026-05-22T01:59:11.652000","MEAN_MOTION":13.11909865,"ECCENTRICITY":0.0001814,"INCLINATION":87.8929,"RA_OF_ASC_NODE":26.2292,"ARG_OF_PERICENTER":84.3124,"MEAN_ANOMALY":275.8211,"EPHEMERIS_TYPE":0,"CLASSIFICATION_TYPE":"U","NORAD_CAT_ID":45440,"ELEMENT_SET_NO":999,"REV_AT_EPOCH":29927,"BSTAR":-0.0011805000000000001,"MEAN_MOTION_DOT":-4.09e-06,"MEAN_MOTION_DDOT":0.0},{"OBJECT_NAME":"ONEWEB-0042","OBJECT_ID":"2020-020T","EPOCH":"2026-05-22T02:32:05.675136","MEAN_MOTION":13.11417984,"ECCENTRICITY":0.0001917,"INCLINATION":87.8919,"RA_OF_ASC_NODE":26.2459,"ARG_OF_PERICENTER":81.0288,"MEAN_ANOMALY":279.1057,"EPHEMERIS_TYPE":0,"CLASSIFICATION_TYPE":"U","NORAD_CAT_ID":45441,"ELEMENT_SET_NO":999,"REV_AT_EPOCH":29924,"BSTAR":-0.00035652000000000004,"MEAN_MOTION_DOT":-1.14e-06,"MEAN_MOTION_DDOT":0.0},{"OBJECT_NAME":"ONEWEB-0098","OBJECT_ID":"2020-020U","EPOCH":"2026-05-22T02:26:10.495968","MEAN_MOTION":13.11419037,"ECCENTRICITY":0.0001738,"INCLINATION":87.8915,"RA_OF_ASC_NODE":26.2568,"ARG_OF_PERICENTER":80.3169,"MEAN_ANOMALY":279.8156,"EPHEMERIS_TYPE":0,"CLASSIFICATION_TYPE":"U","NORAD_CAT_ID":45442,"ELEMENT_SET_NO":999,"REV_AT_EPOCH":29922,"BSTAR":-0.00090557,"MEAN_MOTION_DOT":-3.08e-06,"MEAN_MOTION_DDOT":0.0},{"OBJECT_NAME":"ONEWEB-0055","OBJECT_ID":"2020-020V","EPOCH":"2026-05-22T01:55:26.310432","MEAN_MOTION":13.11412414,"ECCENTRICITY":0.0001731,"INCLINATION":87.8918,"RA_OF_ASC_NODE":26.2593,"ARG_OF_PERICENTER":80.3288,"MEAN_ANOMALY":279.8035,"EPHEMERIS_TYPE":0,"CLASSIFICATION_TYPE":"U","NORAD_CAT_ID":45443,"ELEMENT_SET_NO":999,"REV_AT_EPOCH":29919,"BSTAR":-0.0011692,"MEAN_MOTION_DOT":-4.02e-06,"MEAN_MOTION_DDOT":0.0},{"OBJECT_NAME":"ONEWEB-0093","OBJECT_ID":"2020-020W","EPOCH":"2026-05-22T03:16:27.569280","MEAN_MOTION":13.11415731,"ECCENTRICITY":0.0002229,"INCLINATION":87.8918,"RA_OF_ASC_NODE":26.2407,"ARG_OF_PERICENTER":79.8614,"MEAN_ANOMALY":280.2766,"EPHEMERIS_TYPE":0,"CLASSIFICATION_TYPE":"U","NORAD_CAT_ID":45444,"ELEMENT_SET_NO":999,"REV_AT_EPOCH":29926,"BSTAR":0.0011228,"MEAN_MOTION_DOT":4.11e-06,"MEAN_MOTION_DDOT":0.0},{"OBJECT_NAME":"ONEWEB-0029","OBJECT_ID":"2020-020X","EPOCH":"2026-05-22T02:02:08.362464","MEAN_MOTION":13.10886737,"ECCENTRICITY":0.0001979,"INCLINATION":87.8908,"RA_OF_ASC_NODE":26.2619,"ARG_OF_PERICENTER":79.8365,"MEAN_ANOMALY":280.2986,"EPHEMERIS_TYPE":0,"CLASSIFICATION_TYPE":"U","NORAD_CAT_ID":45445,"ELEMENT_SET_NO":999,"REV_AT_EPOCH":29923,"BSTAR":-0.0016298000000000003,"MEAN_MOTION_DOT":-5.6e-06,"MEAN_MOTION_DDOT":0.0},{"OBJECT_NAME":"ONEWEB-0068","OBJECT_ID":"2020-020Y","EPOCH":"2026-05-22T03:16:03.161280","MEAN_MOTION":13.11414415,"ECCENTRICITY":0.0001996,"INCLINATION":87.8919,"RA_OF_ASC_NODE":26.2444,"ARG_OF_PERICENTER":78.0694,"MEAN_ANOMALY":282.0657,"EPHEMERIS_TYPE":0,"CLASSIFICATION_TYPE":"U","NORAD_CAT_ID":45446,"ELEMENT_SET_NO":999,"REV_AT_EPOCH":29918,"BSTAR":0.0011356,"MEAN_MOTION_DOT":4.15e-06,"MEAN_MOTION_DDOT":0.0},{"OBJECT_NAME":"ONEWEB-0046","OBJECT_ID":"2020-020Z","EPOCH":"2026-05-22T03:04:02.777952","MEAN_MOTION":13.11415734,"ECCENTRICITY":0.0002109,"INCLINATION":87.8917,"RA_OF_ASC_NODE":26.2533,"ARG_OF_PERICENTER":84.6305,"MEAN_ANOMALY":275.5064,"EPHEMERIS_TYPE":0,"CLASSIFICATION_TYPE":"U","NORAD_CAT_ID":45447,"ELEMENT_SET_NO":999,"REV_AT_EPOCH":29919,"BSTAR":0.0012769,"MEAN_MOTION_DOT":4.65e-06,"MEAN_MOTION_DDOT":0.0},{"OBJECT_NAME":"ONEWEB-0063","OBJECT_ID":"2020-020AA","EPOCH":"2026-05-22T01:55:51.116736","MEAN_MOTION":13.11414183,"ECCENTRICITY":0.0001916,"INCLINATION":87.892,"RA_OF_ASC_NODE":26.26,"ARG_OF_PERICENTER":90.619,"MEAN_ANOMALY":269.5158,"EPHEMERIS_TYPE":0,"CLASSIFICATION_TYPE":"U","NORAD_CAT_ID":45448,"ELEMENT_SET_NO":999,"REV_AT_EPOCH":29927,"BSTAR":-0.0011364,"MEAN_MOTION_DOT":-3.9e-06,"MEAN_MOTION_DDOT":0.0},{"OBJECT_NAME":"ONEWEB-0019","OBJECT_ID":"2020-020AB","EPOCH":"2026-05-22T02:51:37.876896","MEAN_MOTION":13.11417573,"ECCENTRICITY":0.0001708,"INCLINATION":87.8915,"RA_OF_ASC_NODE":26.2406,"ARG_OF_PERICENTER":79.9427,"MEAN_ANOMALY":280.1894,"EPHEMERIS_TYPE":0,"CLASSIFICATION_TYPE":"U","NORAD_CAT_ID":45449,"ELEMENT_SET_NO":999,"REV_AT_EPOCH":29912,"BSTAR":0.0012223000000000002,"MEAN_MOTION_DOT":4.46e-06,"MEAN_MOTION_DDOT":0.0}]