ONEWEB-0018             
1 45434U 20020L   26142.12441852  .00000608  00000+0  16803-2 0  9999
2 45434  87.8910  26.2510 0001922  70.1585 289.9750 13.11416924299216
ONEWEB-0083             
1 45435U 20020M   26142.11437548  .00000253  00000+0  67778-3 0  9990
2 45435  87.8921  26.2451 0001792  79.3717 280.7613 13.11418653299258
ONEWEB-0095             
1 45436U 20020N   26142.10590165 -.00000130  00000+0 -40156-3 0  9992
2 45436  87.8916  26.2554 0001925 106.2216 253.9124 13.11417521299251
ONEWEB-0092             
1 45437U 20020P   26142.14481517  .00000097  00000+0  23720-3 0  9995
2 45437  87.8917  26.2433 0002006  89.7263 270.4096 13.11952088299374
ONEWEB-0085             
1 45438U 20020Q   26142.11410633  .00000202  00000+0  53464-3 0  9990
2 45438  87.8909  26.2540 0001809  81.8947 278.2387 13.11419915299250
ONEWEB-0096             
1 45439U 20020R   26142.11594951  .00000252  00000+0  67463-3 0  9996
2 45439  87.8922  26.2472 0001904  81.7021 278.4323 13.11416087299246
ONEWEB-0037             
1 45440U 20020S   26142.08277375 -.00000409  00000+0 -11805-2 0  9996
2 45440  87.8929  26.2292 0001814  84.3124 275.8211 13.11909865299279
ONEWEB-0042             
1 45441U 20020T   26142.10562124 -.00000114  00000+0 -35652-3 0  9999
2 45441  87.8919  26.2459 0001917  81.0288 279.1057 13.11417984299241
ONEWEB-0098             
1 45442U 20020U   26142.10151037 -.00000308  00000+0 -90557-3 0  9997
2 45442  87.8915  26.2568 0001738  80.3169 279.8156 13.11419037299226
ONEWEB-0055             
1 45443U 20020V   26142.08016563 -.00000402  00000+0 -11692-2 0  9996
2 45443  87.8918  26.2593 0001731  80.3288 279.8035 13.11412414299197
ONEWEB-0093             
1 45444U 20020W   26142.13643020  .00000411  00000+0  11228-2 0  9990
2 45444  87.8918  26.2407 0002229  79.8614 280.2766 13.11415731299261
ONEWEB-0029             
1 45445U 20020X   26142.08481901 -.00000560  00000+0 -16298-2 0  9992
2 45445  87.8908  26.2619 0001979  79.8365 280.2986 13.10886737299238
ONEWEB-0068             
1 45446U 20020Y   26142.13614770  .00000415  00000+0  11356-2 0  9998
2 45446  87.8919  26.2444 0001996  78.0694 282.0657 13.11414415299182
ONEWEB-0046             
1 45447U 20020Z   26142.12780993  .00000465  00000+0  12769-2 0  9993
2 45447  87.8917  26.2533 0002109  84.6305 275.5064 13.11415734299194
ONEWEB-0063             
1 45448U 20020AA  26142.08045274 -.00000390  00000+0 -11364-2 0  9994
2 45448  87.8920  26.2600 0001916  90.6190 269.5158 13.11414183299271
ONEWEB-0019             
1 45449U 20020AB  26142.11918839  .00000446  00000+0  12223-2 0  9990
2 45449  87.8915  26.2406 0001708  79.9427 280.1894 13.11417573299128
